OBJECT_NAME,OBJECT_ID,EPOCH,MEAN_MOTION,ECCENTRICITY,INCLINATION,RA_OF_ASC_NODE,ARG_OF_PERICENTER,MEAN_ANOMALY,EPHEMERIS_TYPE,CLASSIFICATION_TYPE,NORAD_CAT_ID,ELEMENT_SET_NO,REV_AT_EPOCH,BSTAR,MEAN_MOTION_DOT,MEAN_MOTION_DDOT
STARLINK-32464,2024-224B,2026-07-17T06:25:51.027744,15.27582705,.00016118,43.0018,146.6329,263.4906,96.5762,0,U,62140,999,9223,.34052609E-3,.9121E-4,0
STARLINK-32482,2024-224C,2026-07-17T05:30:20.475360,15.27581120,.00009058,43.0017,146.3433,265.2347,94.8401,0,U,62141,999,9213,.18158801E-3,.4738E-4,0
STARLINK-32454,2024-224D,2026-07-17T05:23:36.396384,15.27582855,.00012047,43.0007,154.0874,274.5431,85.5283,0,U,62142,999,9220,.32839412E-3,.8786E-4,0
STARLINK-32485,2024-224E,2026-07-17T05:20:23.654400,15.27579078,.00012714,42.9942,149.7546,260.8462,99.2246,0,U,62143,999,9182,.2159121E-3,.5684E-4,0
STARLINK-32388,2024-224F,2026-07-17T08:26:22.012224,15.27583694,.00011065,43.0007,153.3202,265.0260,95.0465,0,U,62144,999,9222,.12960379E-3,.3306E-4,0
STARLINK-32374,2024-224G,2026-07-17T13:52:35.009472,15.27585181,.00015023,43.0017,144.6613,277.1395,82.9286,0,U,62145,999,9234,.25777224E-3,.6839E-4,0
STARLINK-32384,2024-224H,2026-07-16T23:47:01.135968,15.27581084,.00016106,43.0008,147.9934,245.6835,114.3849,0,U,62146,999,9225,.33526682E-3,.8975E-4,0
STARLINK-32295,2024-224J,2026-07-17T06:18:27.074304,15.27584568,.00018608,43.0019,146.5908,262.5912,97.4729,0,U,62147,999,9218,.41405889E-3,.11151E-3,0
STARLINK-32479,2024-224K,2026-07-17T13:39:39.276576,15.27589446,.00014999,43.0032,144.5982,256.8604,103.2081,0,U,62148,999,9228,.35217091E-3,.9444E-4,0
STARLINK-32468,2024-224L,2026-07-17T05:46:59.517696,15.27595064,.00015266,43.0021,146.4332,290.1328,69.9359,0,U,62149,999,9213,.25863213E-3,.6865E-4,0
STARLINK-32629,2024-224M,2026-07-17T12:58:55.139808,15.27563878,.00014478,43.0008,144.3753,250.2256,109.8439,0,U,62150,999,9234,.2720299E-3,.7227E-4,0
STARLINK-32644,2024-224N,2026-07-16T08:18:27.506016,15.27560192,.0002931,42.9991,151.7507,36.2540,323.8510,0,U,62151,999,9215,.31719E-3,.8471E-4,0
STARLINK-32623,2024-224P,2026-07-17T05:35:11.842944,15.27584120,.00010395,43.0002,149.8252,240.6539,119.4209,0,U,62152,999,9219,.53258945E-3,.14424E-3,0
STARLINK-32639,2024-224Q,2026-07-17T06:12:52.334784,15.27631069,.00012861,42.9998,146.5639,281.8335,78.2372,0,U,62153,999,9213,.71260865E-3,.1943E-3,0
STARLINK-32625,2024-224R,2026-07-17T04:49:50.425248,15.27586006,.00014827,43.0008,146.9864,263.7220,96.3462,0,U,62154,999,9217,.34256492E-3,.9178E-4,0
STARLINK-32635,2024-224S,2026-07-17T05:29:09.597120,15.27581264,.00011231,43.0000,154.1137,265.9657,94.1066,0,U,62155,999,9204,.2646066E-3,.7027E-4,0
STARLINK-32532,2024-224T,2026-07-17T05:35:53.664000,15.27605200,.00012016,43.0008,146.3722,278.3973,81.6742,0,U,62156,999,9213,.24773616E-3,.6566E-4,0
STARLINK-32503,2024-224U,2026-07-17T06:46:39.559584,15.27588404,.00020293,43.0026,153.6572,255.2096,104.8531,0,U,62157,999,9178,.49561913E-3,.13405E-3,0
STARLINK-32508,2024-224V,2026-07-17T04:18:22.287168,15.27598857,.0001383,43.0020,146.8268,270.4122,89.6571,0,U,62158,999,9228,.30869922E-3,.8247E-4,0
STARLINK-32524,2024-224W,2026-07-17T05:51:50.966496,15.27587122,.00010746,43.0030,149.9154,254.7393,105.3340,0,U,62159,999,9209,.33858398E-3,.9068E-4,0
STARLINK-32484,2024-224X,2026-07-17T06:22:09.082560,15.27585813,.00010166,43.0007,146.6084,278.5159,81.5577,0,U,62160,999,9229,.21206107E-3,.5579E-4,0
STARLINK-32497,2024-224Y,2026-07-16T23:24:07.234272,15.27586219,.00004188,42.9998,151.3331,280.4043,79.6762,0,U,62161,999,9220,.29299501E-3,.7811E-4,0
STARLINK-32526,2024-224Z,2026-07-17T13:37:04.249920,15.27572520,.00013358,42.9954,148.0421,89.9699,270.1306,0,U,62162,999,9229,.26162664E-3,.6943E-4,0
STARLINK-32523,2024-225C,2026-07-17T01:47:31.173504,14.98334381,.00041281,69.9999,198.3063,265.2463,94.8224,0,U,62165,999,8925,.14743556E-3,.1667E-4,0
STARLINK-32551,2024-225D,2026-07-17T10:48:15.758496,14.98332265,.00034122,70.0000,197.2161,267.5126,92.5643,0,U,62166,999,8931,.10207902E-3,.1125E-4,0
STARLINK-32506,2024-225E,2026-07-17T02:11:33.872928,14.98335425,.00039633,69.9998,198.3660,265.1195,94.9512,0,U,62167,999,8925,.19504606E-3,.2235E-4,0
STARLINK-32562,2024-225F,2026-07-17T09:30:10.723680,14.98326502,.00039666,69.9996,197.4213,265.3895,94.6811,0,U,62168,999,8930,.11326695E-3,.1259E-4,0
STARLINK-32558,2024-225G,2026-07-17T01:41:31.615584,14.98329039,.00032038,70.0000,198.2911,266.3298,93.7495,0,U,62169,999,8925,.20974795E-3,.241E-4,0
STARLINK-32538,2024-225H,2026-07-17T10:00:13.264416,14.98324900,.00039301,69.9995,197.4959,262.6978,97.3734,0,U,62170,999,8930,.19935506E-3,.2286E-4,0
STARLINK-32257,2024-225J,2026-07-17T02:29:33.262944,14.98335821,.00039126,69.9999,198.0115,264.3603,95.7110,0,U,62171,999,8926,.11976425E-3,.1336E-4,0
