STARLINK-32464          
1 62140U 24224B   26198.26795171  .00009121  00000+0  34053-3 0  9991
2 62140  43.0018 146.6329 0001611 263.4906  96.5762 15.27582705 92234
STARLINK-32482          
1 62141U 24224C   26198.22940365  .00004738  00000+0  18159-3 0  9993
2 62141  43.0017 146.3433 0000905 265.2347  94.8401 15.27581120 92131
STARLINK-32454          
1 62142U 24224D   26198.22472681  .00008786  00000+0  32839-3 0  9993
2 62142  43.0007 154.0874 0001204 274.5431  85.5283 15.27582855 92205
STARLINK-32485          
1 62143U 24224E   26198.22249600  .00005684  00000+0  21591-3 0  9994
2 62143  42.9942 149.7546 0001271 260.8462  99.2246 15.27579078 91826
STARLINK-32388          
1 62144U 24224F   26198.35164366  .00003306  00000+0  12960-3 0  9993
2 62144  43.0007 153.3202 0001106 265.0260  95.0465 15.27583694 92222
STARLINK-32374          
1 62145U 24224G   26198.57818298  .00006839  00000+0  25777-3 0  9992
2 62145  43.0017 144.6613 0001502 277.1395  82.9286 15.27585181 92348
STARLINK-32384          
1 62146U 24224H   26197.99098537  .00008975  00000+0  33527-3 0  9999
2 62146  43.0008 147.9934 0001610 245.6835 114.3849 15.27581084 92253
STARLINK-32295          
1 62147U 24224J   26198.26281336  .00011151  00000+0  41406-3 0  9997
2 62147  43.0019 146.5908 0001860 262.5912  97.4729 15.27584568 92183
STARLINK-32479          
1 62148U 24224K   26198.56920459  .00009444  00000+0  35217-3 0  9992
2 62148  43.0032 144.5982 0001499 256.8604 103.2081 15.27589446 92289
STARLINK-32468          
1 62149U 24224L   26198.24096664  .00006865  00000+0  25863-3 0  9990
2 62149  43.0021 146.4332 0001526 290.1328  69.9359 15.27595064 92136
STARLINK-32629          
1 62150U 24224M   26198.54091597  .00007227  00000+0  27203-3 0  9998
2 62150  43.0008 144.3753 0001447 250.2256 109.8439 15.27563878 92340
STARLINK-32644          
1 62151U 24224N   26197.34615169  .00008471  00000+0  31719-3 0  9992
2 62151  42.9991 151.7507 0002931  36.2540 323.8510 15.27560192 92159
STARLINK-32623          
1 62152U 24224P   26198.23277596  .00014424  00000+0  53259-3 0  9998
2 62152  43.0002 149.8252 0001039 240.6539 119.4209 15.27584120 92192
STARLINK-32639          
1 62153U 24224Q   26198.25893906  .00019430  00000+0  71261-3 0  9995
2 62153  42.9998 146.5639 0001286 281.8335  78.2372 15.27631069 92135
STARLINK-32625          
1 62154U 24224R   26198.20127807  .00009178  00000+0  34256-3 0  9992
2 62154  43.0008 146.9864 0001482 263.7220  96.3462 15.27586006 92179
STARLINK-32635          
1 62155U 24224S   26198.22858330  .00007027  00000+0  26461-3 0  9997
2 62155  43.0000 154.1137 0001123 265.9657  94.1066 15.27581264 92049
STARLINK-32532          
1 62156U 24224T   26198.23326000  .00006566  00000+0  24774-3 0  9995
2 62156  43.0008 146.3722 0001201 278.3973  81.6742 15.27605200 92136
STARLINK-32503          
1 62157U 24224U   26198.28240231  .00013405  00000+0  49562-3 0  9994
2 62157  43.0026 153.6572 0002029 255.2096 104.8531 15.27588404 91780
STARLINK-32508          
1 62158U 24224V   26198.17942462  .00008247  00000+0  30870-3 0  9998
2 62158  43.0020 146.8268 0001383 270.4122  89.6571 15.27598857 92285
STARLINK-32524          
1 62159U 24224W   26198.24433989  .00009068  00000+0  33858-3 0  9997
2 62159  43.0030 149.9154 0001074 254.7393 105.3340 15.27587122 92099
STARLINK-32484          
1 62160U 24224X   26198.26538290  .00005579  00000+0  21206-3 0  9999
2 62160  43.0007 146.6084 0001016 278.5159  81.5577 15.27585813 92295
STARLINK-32497          
1 62161U 24224Y   26197.97508373  .00007811  00000+0  29300-3 0  9990
2 62161  42.9998 151.3331 0000418 280.4043  79.6762 15.27586219 92206
STARLINK-32526          
1 62162U 24224Z   26198.56741030  .00006943  00000+0  26163-3 0  9995
2 62162  42.9954 148.0421 0001335  89.9699 270.1306 15.27572520 92291
STARLINK-32523          
1 62165U 24225C   26198.07466636  .00001667  00000+0  14744-3 0  9991
2 62165  69.9999 198.3063 0004128 265.2463  94.8224 14.98334381 89253
STARLINK-32551          
1 62166U 24225D   26198.45018239  .00001125  00000+0  10208-3 0  9996
2 62166  70.0000 197.2161 0003412 267.5126  92.5643 14.98332265 89319
STARLINK-32506          
1 62167U 24225E   26198.09136427  .00002235  00000+0  19505-3 0  9999
2 62167  69.9998 198.3660 0003963 265.1195  94.9512 14.98335425 89255
STARLINK-32562          
1 62168U 24225F   26198.39595745  .00001259  00000+0  11327-3 0  9994
2 62168  69.9996 197.4213 0003966 265.3895  94.6811 14.98326502 89301
STARLINK-32558          
1 62169U 24225G   26198.07050481  .00002410  00000+0  20975-3 0  9992
2 62169  70.0000 198.2911 0003203 266.3298  93.7495 14.98329039 89257
STARLINK-32538          
1 62170U 24225H   26198.41682019  .00002286  00000+0  19936-3 0  9996
2 62170  69.9995 197.4959 0003930 262.6978  97.3734 14.98324900 89307
STARLINK-32257          
1 62171U 24225J   26198.10385721  .00001336  00000+0  11976-3 0  9994
2 62171  69.9999 198.0115 0003912 264.3603  95.7110 14.98335821 89266
